{
  "norad_id": 48604,
  "name": "STARLINK-2757",
  "history": [
    {
      "epoch": "2026-03-28T14:47:12.801696Z",
      "apogee_km": 548.3044782247916,
      "perigee_km": 546.0952957578411,
      "latitude_deg": -5.5511266625453565e-05,
      "longitude_deg": 8.81780629928433,
      "height_km": 548.1033982345297,
      "semi_major_axis_km": 6925.336886991316,
      "eccentricity": 0.0001595,
      "inclination_deg": 53.0555,
      "raan_deg": 56.6552,
      "arg_perigee_deg": 91.3649,
      "mean_anomaly_deg": 268.7522,
      "mean_motion_rev_day": 15.06403808
    },
    {
      "epoch": "2026-03-29T05:07:03.390816Z",
      "apogee_km": 548.2650394605444,
      "perigee_km": 546.0904906243213,
      "latitude_deg": 1.6038748202723442e-05,
      "longitude_deg": 150.58763004690366,
      "height_km": 548.0869618080764,
      "semi_major_axis_km": 6925.314765042433,
      "eccentricity": 0.000157,
      "inclination_deg": 53.0552,
      "raan_deg": 53.9743,
      "arg_perigee_deg": 91.6866,
      "mean_anomaly_deg": 268.4303,
      "mean_motion_rev_day": 15.06411026
    },
    {
      "epoch": "2026-03-30T03:24:35.291232Z",
      "apogee_km": 548.1846854973292,
      "perigee_km": 546.1195642802877,
      "latitude_deg": 2.9233208375214046e-05,
      "longitude_deg": 171.11861417996963,
      "height_km": 547.9831970285268,
      "semi_major_axis_km": 6925.289124888808,
      "eccentricity": 0.0001491,
      "inclination_deg": 53.0551,
      "raan_deg": 49.8037,
      "arg_perigee_deg": 87.434,
      "mean_anomaly_deg": 272.682,
      "mean_motion_rev_day": 15.06419392
    },
    {
      "epoch": "2026-03-30T05:00:07.330752Z",
      "apogee_km": 548.1673790977329,
      "perigee_km": 546.1097412232994,
      "latitude_deg": -2.603130872690078e-05,
      "longitude_deg": 146.87158422895712,
      "height_km": 547.9129977348375,
      "semi_major_axis_km": 6925.275560160516,
      "eccentricity": 0.00014856,
      "inclination_deg": 53.0552,
      "raan_deg": 49.5056,
      "arg_perigee_deg": 84.2598,
      "mean_anomaly_deg": 275.856,
      "mean_motion_rev_day": 15.06423818
    },
    {
      "epoch": "2026-03-30T14:33:23.013504Z",
      "apogee_km": 548.5909505704967,
      "perigee_km": 545.8086272621822,
      "latitude_deg": -5.728758354633309e-06,
      "longitude_deg": 1.3778716025380897,
      "height_km": 548.0410862550626,
      "semi_major_axis_km": 6925.336788916339,
      "eccentricity": 0.00020088,
      "inclination_deg": 53.0556,
      "raan_deg": 47.7196,
      "arg_perigee_deg": 88.5456,
      "mean_anomaly_deg": 271.5763,
      "mean_motion_rev_day": 15.0640384
    },
    {
      "epoch": "2026-03-30T20:55:33.475008Z",
      "apogee_km": 548.3877400147157,
      "perigee_km": 546.0980709103706,
      "latitude_deg": 5.281102435901473e-05,
      "longitude_deg": -95.61946295896036,
      "height_km": 548.1401189160092,
      "semi_major_axis_km": 6925.379905462542,
      "eccentricity": 0.00016531,
      "inclination_deg": 53.054,
      "raan_deg": 46.5274,
      "arg_perigee_deg": 91.0149,
      "mean_anomaly_deg": 269.103,
      "mean_motion_rev_day": 15.06389772
    },
    {
      "epoch": "2026-03-31T06:28:47.903232Z",
      "apogee_km": 548.3319265271712,
      "perigee_km": 546.1656658501233,
      "latitude_deg": 7.100761522202273e-05,
      "longitude_deg": 118.89236441571893,
      "height_km": 548.0998188802407,
      "semi_major_axis_km": 6925.385796188647,
      "eccentricity": 0.0001564,
      "inclination_deg": 53.0555,
      "raan_deg": 44.7417,
      "arg_perigee_deg": 88.6141,
      "mean_anomaly_deg": 271.5028,
      "mean_motion_rev_day": 15.0638785
    },
    {
      "epoch": "2026-04-01T03:10:49.156032Z",
      "apogee_km": 548.2328491175977,
      "perigee_km": 546.2930445924849,
      "latitude_deg": 5.5500016055417216e-05,
      "longitude_deg": 163.66440092153738,
      "height_km": 548.180562312495,
      "semi_major_axis_km": 6925.399946855041,
      "eccentricity": 0.00014005,
      "inclination_deg": 53.0554,
      "raan_deg": 40.8691,
      "arg_perigee_deg": 92.3741,
      "mean_anomaly_deg": 267.7409,
      "mean_motion_rev_day": 15.06383233
    },
    {
      "epoch": "2026-04-02T20:34:50.930688Z",
      "apogee_km": 548.305607756377,
      "perigee_km": 546.160128171281,
      "latitude_deg": -6.360837829232354e-05,
      "longitude_deg": -106.78643871773765,
      "height_km": 548.2988526879161,
      "semi_major_axis_km": 6925.369867963828,
      "eccentricity": 0.0001549,
      "inclination_deg": 53.0586,
      "raan_deg": 33.126,
      "arg_perigee_deg": 100.113,
      "mean_anomaly_deg": 260.0033,
      "mean_motion_rev_day": 15.06393047
    },
    {
      "epoch": "2026-04-02T20:34:50.931552Z",
      "apogee_km": 548.3057462637735,
      "perigee_km": 546.1599896638836,
      "latitude_deg": -6.542311483789539e-05,
      "longitude_deg": -106.78644368471137,
      "height_km": 548.2988770082472,
      "semi_major_axis_km": 6925.369867963828,
      "eccentricity": 0.00015492,
      "inclination_deg": 53.0586,
      "raan_deg": 33.126,
      "arg_perigee_deg": 100.113,
      "mean_anomaly_deg": 260.0033,
      "mean_motion_rev_day": 15.06393047
    },
    {
      "epoch": "2026-04-03T18:52:23.106720Z",
      "apogee_km": 548.2187329186445,
      "perigee_km": 546.1439075499029,
      "latitude_deg": 7.338491098027923e-06,
      "longitude_deg": -86.25556346452404,
      "height_km": 548.2452254333082,
      "semi_major_axis_km": 6925.318320234273,
      "eccentricity": 0.0001498,
      "inclination_deg": 53.0577,
      "raan_deg": 28.9564,
      "arg_perigee_deg": 100.346,
      "mean_anomaly_deg": 259.7698,
      "mean_motion_rev_day": 15.06409866
    },
    {
      "epoch": "2026-04-04T12:23:21.527232Z",
      "apogee_km": 549.3304144220829,
      "perigee_km": 545.3346955076495,
      "latitude_deg": 4.858470853904281e-05,
      "longitude_deg": 7.000782160229485,
      "height_km": 547.72079096368,
      "semi_major_axis_km": 6925.469554964866,
      "eccentricity": 0.00028848,
      "inclination_deg": 53.0544,
      "raan_deg": 25.6755,
      "arg_perigee_deg": 75.8908,
      "mean_anomaly_deg": 284.2402,
      "mean_motion_rev_day": 15.06360522
    },
    {
      "epoch": "2026-04-05T12:16:26.292288Z",
      "apogee_km": 548.1630395274105,
      "perigee_km": 546.2949912984132,
      "latitude_deg": -3.797005871689539e-05,
      "longitude_deg": 3.285753639801168,
      "height_km": 548.0929239271214,
      "semi_major_axis_km": 6925.366015412912,
      "eccentricity": 0.00013487,
      "inclination_deg": 53.0543,
      "raan_deg": 21.2113,
      "arg_perigee_deg": 89.1717,
      "mean_anomaly_deg": 270.9426,
      "mean_motion_rev_day": 15.06394304
    },
    {
      "epoch": "2026-04-05T18:38:36.137760Z",
      "apogee_km": 548.3154582036368,
      "perigee_km": 546.1422783941653,
      "latitude_deg": -3.198763259172192e-05,
      "longitude_deg": -93.70874718684001,
      "height_km": 548.0414625624244,
      "semi_major_axis_km": 6925.365868298901,
      "eccentricity": 0.0001569,
      "inclination_deg": 53.0539,
      "raan_deg": 20.0194,
      "arg_perigee_deg": 86.5985,
      "mean_anomaly_deg": 273.5183,
      "mean_motion_rev_day": 15.06394352
    },
    {
      "epoch": "2026-04-06T01:00:45.904608Z",
      "apogee_km": 548.2304662911665,
      "perigee_km": 546.2014763776242,
      "latitude_deg": 1.7023827774993715e-05,
      "longitude_deg": 169.29831263855243,
      "height_km": 548.1097981598061,
      "semi_major_axis_km": 6925.352971334395,
      "eccentricity": 0.00014649,
      "inclination_deg": 53.0541,
      "raan_deg": 18.8287,
      "arg_perigee_deg": 90.9379,
      "mean_anomaly_deg": 269.1778,
      "mean_motion_rev_day": 15.0639856
    },
    {
      "epoch": "2026-04-07T00:53:49.626816Z",
      "apogee_km": 548.2352242134148,
      "perigee_km": 545.9692859291554,
      "latitude_deg": -1.9778495838770503e-05,
      "longitude_deg": 165.5846773163675,
      "height_km": 547.930919036344,
      "semi_major_axis_km": 6925.239255071285,
      "eccentricity": 0.0001636,
      "inclination_deg": 53.0541,
      "raan_deg": 14.3615,
      "arg_perigee_deg": 87.5547,
      "mean_anomaly_deg": 272.5629,
      "mean_motion_rev_day": 15.06435664
    },
    {
      "epoch": "2026-04-08T03:58:00.001056Z",
      "apogee_km": 548.3960234016922,
      "perigee_km": 546.0751925333116,
      "latitude_deg": -4.983099749316628e-05,
      "longitude_deg": 113.36571865750608,
      "height_km": 548.3302477955782,
      "semi_major_axis_km": 6925.372607967502,
      "eccentricity": 0.00016756,
      "inclination_deg": 53.0555,
      "raan_deg": 9.2975,
      "arg_perigee_deg": 100.8041,
      "mean_anomaly_deg": 259.3136,
      "mean_motion_rev_day": 15.06392153
    },
    {
      "epoch": "2026-04-09T10:13:15.265632Z",
      "apogee_km": 548.1492267504154,
      "perigee_km": 546.2732884144016,
      "latitude_deg": -4.935203204960972e-05,
      "longitude_deg": 12.650615303589278,
      "height_km": 548.288777706511,
      "semi_major_axis_km": 6925.348257582408,
      "eccentricity": 0.00013544,
      "inclination_deg": 53.0535,
      "raan_deg": 3.6385,
      "arg_perigee_deg": 102.3215,
      "mean_anomaly_deg": 257.7925,
      "mean_motion_rev_day": 15.06400098
    },
    {
      "epoch": "2026-04-10T10:06:21.553056Z",
      "apogee_km": 548.4075562275675,
      "perigee_km": 546.0667797587848,
      "latitude_deg": 2.6496291123248543e-05,
      "longitude_deg": 8.926246386792796,
      "height_km": 548.3192240406755,
      "semi_major_axis_km": 6925.374167993175,
      "eccentricity": 0.000169,
      "inclination_deg": 53.0551,
      "raan_deg": 359.1712,
      "arg_perigee_deg": 100.0886,
      "mean_anomaly_deg": 260.0294,
      "mean_motion_rev_day": 15.06391644
    }
  ]
}